Contact_id,Address,City,State,Zip,Address_type
1,,,,75018,home
2,2287 Sutteridge Park,Dallas,Texas,75062,home
3,,,,75029,home
4,,,,75099,home
5,62477 Hovde Hill,Allen,Texas,75061,home
6,06 Heffernan Center,Richardson,Texas,,home
7,,,,75031,home
8,16515 Nova Hill,Allen,Texas,75041,home
9,626 Orin Center,Addison,Texas,,home
10,6687 Dottie Plaza,Richardson,Texas,75027,home
11,8 Luster Terrace,Dallas,Texas,75059,home
12,,,,75076,home
13,15 Jackson Lane,Allen,Texas,75013,home
14,79254 Pond Center,Dallas,Texas,75083,home
15,9 Logan Parkway,Dallas,Texas,75078,home
16,65052 Heath Point,Plano,Texas,75046,home
17,,,,75005,home
18,8 Fuller Road,Addison,Texas,75088,home
19,1961 Division Hill,Addison,Texas,,home
20,,,,75042,home
21,,,,75060,home
22,528 Main Junction,Dallas,Texas,75046,home
23,9086 Sommers Crossing,Richardson,Texas,,home
24,,,,75099,home
25,83 Shoshone Parkway,Plano,Texas,75046,home
26,333 Scoville Hill,Allen,Texas,75091,home
27,18894 Division Lane,Richardson,Texas,75083,home
28,250 2nd Drive,Richardson,Texas,,home
29,85701 Basil Road,Allen,Texas,75004,home
30,23 Kings Lane,Plano,Texas,75086,home
31,4 Maple Trail,Richardson,Texas,,home
32,504 Bayside Pass,Dallas,Texas,75060,home
33,,,,75009,home
34,26 Towne Road,Richardson,Texas,75047,home
35,9324 Onsgard Parkway,Dallas,Texas,,home
36,016 Oak Valley Parkway,Dallas,Texas,,home
37,660 Truax Way,Dallas,Texas,75037,home
38,75903 Linden Circle,Plano,Texas,75045,home
39,36 Alpine Drive,Richardson,Texas,,home
40,6 Muir Circle,Dallas,Texas,75078,home
41,5395 Becker Drive,Plano,Texas,75011,home
42,4585 Bluestem Avenue,Plano,Texas,75013,home
43,9 Orin Alley,Richardson,Texas,75002,home
44,9274 Spohn Hill,Dallas,Texas,75041,home
45,34 Northfield Plaza,Dallas,Texas,75061,home
46,825 Dixon Lane,Dallas,Texas,75030,home
47,,,,,home
48,,,,75071,home
49,160 Grasskamp Park,Allen,Texas,75011,home
50,,,,,home
51,3681 Schmedeman Park,Allen,Texas,75010,home
52,1330 Thackeray Junction,Plano,Texas,75002,home
53,70 Gina Point,Richardson,Texas,,home
54,0 Golf View Plaza,Dallas,Texas,75095,home
55,22839 Stuart Park,Richardson,Texas,75074,home
56,92 Elmside Way,Plano,Texas,,home
57,589 Mccormick Parkway,Dallas,Texas,75067,home
58,56378 Talisman Drive,Allen,Texas,75032,home
59,99570 Bayside Parkway,Allen,Texas,,home
60,99687 Jenna Circle,Richardson,Texas,75016,home
61,9028 Carberry Avenue,Addison,Texas,75011,home
62,55 Del Mar Hill,Allen,Texas,75017,home
63,,,,75041,home
64,,,,,home
65,72772 Northfield Way,Dallas,Texas,75002,home
66,11 Donald Plaza,Allen,Texas,75048,home
67,67412 Sundown Parkway,Addison,Texas,,home
68,3 Moulton Junction,Addison,Texas,75049,home
69,434 Farwell Plaza,Plano,Texas,75059,home
70,08 Fremont Road,Allen,Texas,75048,home
71,1251 Graceland Point,Dallas,Texas,75051,home
72,,,,75023,home
73,86545 Tennyson Crossing,Richardson,Texas,75064,home
74,1430 Linden Way,Addison,Texas,75040,home
75,2268 Nancy Lane,Richardson,Texas,75081,home
76,,,,75022,home
77,840 Kingsford Parkway,Richardson,Texas,75073,home
78,4 Sunbrook Avenue,Addison,Texas,75067,home
79,8735 Bultman Circle,Dallas,Texas,75094,home
80,65183 Delladonna Avenue,Allen,Texas,75079,home
81,89640 Cody Terrace,Richardson,Texas,,home
82,12 Butternut Terrace,Richardson,Texas,75006,home
83,204 Farwell Avenue,Plano,Texas,75074,home
84,1 Anhalt Junction,Dallas,Texas,,home
85,933 Debra Terrace,Allen,Texas,75021,home
86,4265 Mayer Junction,Plano,Texas,75053,home
87,46 Oakridge Avenue,Richardson,Texas,75059,home
88,71 Jay Terrace,Plano,Texas,75055,home
89,598 Elmside Drive,Dallas,Texas,75067,home
90,,,,75001,home
91,421 8th Drive,Addison,Texas,75004,home
92,,,,75047,home
93,27 Talmadge Park,Plano,Texas,75034,home
94,801 Pleasure Trail,Addison,Texas,75057,home
95,2449 Pepper Wood Court,Plano,Texas,75055,home
96,79761 Carioca Point,Allen,Texas,,home
97,,,,75093,home
98,,,,75033,home
99,27015 Nelson Parkway,Richardson,Texas,,home
100,470 Derek Plaza,Richardson,Texas,75013,home
101,622 Iowa Terrace,Allen,Texas,75086,home
102,,,,75097,home
103,8 Colorado Alley,Dallas,Texas,75094,home
104,4 Dwight Court,Richardson,Texas,75072,home
105,7 Sugar Parkway,Richardson,Texas,75014,home
106,5221 Pearson Parkway,Addison,Texas,,home
107,80 Welch Street,Allen,Texas,75061,home
108,3 Derek Alley,Richardson,Texas,,home
109,,,,75003,home
110,1409 Loftsgordon Alley,Plano,Texas,75003,home
111,3188 Fieldstone Circle,Plano,Texas,75072,home
112,,,,,home
113,,,,,home
114,86 Welch Parkway,Allen,Texas,,home
115,210 Victoria Hill,Allen,Texas,,home
116,,,,,home
117,19886 Pine View Terrace,Addison,Texas,75056,home
118,24 Welch Avenue,Plano,Texas,75031,home
119,0 Karstens Way,Allen,Texas,75088,home
120,8101 Jenna Court,Dallas,Texas,75085,home
121,24 Doe Crossing Court,Dallas,Texas,75028,home
122,79 Buena Vista Drive,Allen,Texas,,home
123,82883 Ohio Junction,Plano,Texas,,home
124,7595 Rusk Crossing,Dallas,Texas,75097,home
125,4 Elmside Park,Addison,Texas,,home
126,67 Corscot Drive,Plano,Texas,75098,home
127,4 Heath Parkway,Addison,Texas,75005,home
128,202 Pankratz Terrace,Addison,Texas,75007,home
129,,,,75049,home
130,1652 Rowland Plaza,Addison,Texas,75064,home
131,84 Sommers Plaza,Addison,Texas,75004,home
132,97 Cardinal Road,Dallas,Texas,75027,home
133,54 Lakewood Drive,Richardson,Texas,75063,home
134,,,,,home
135,,,,,home
136,3 Gulseth Alley,Addison,Texas,75052,home
137,,,,75044,home
138,207 Fulton Avenue,Dallas,Texas,75094,home
139,28 Hollow Ridge Lane,Plano,Texas,75068,home
140,37 Hauk Avenue,Dallas,Texas,75098,home
141,137 Moose Circle,Plano,Texas,75026,home
142,63832 Shasta Crossing,Plano,Texas,75044,home
143,,,,,home
144,38977 Karstens Lane,Allen,Texas,,home
145,6 Browning Point,Plano,Texas,75097,home
146,3785 Heath Pass,Dallas,Texas,75005,home
147,8406 Golf Course Trail,Allen,Texas,75033,home
148,2 Truax Trail,Addison,Texas,75071,home
149,,,,,home
150,7 Scott Place,Plano,Texas,,home
151,,,,75012,home
152,299 Golf View Way,Allen,Texas,75085,home
153,003 Morrow Crossing,Allen,Texas,75049,home
154,,,,,home
155,679 Pankratz Lane,Addison,Texas,75052,home
156,272 Farmco Lane,Addison,Texas,75003,home
157,3229 Huxley Hill,Richardson,Texas,75091,home
158,,,,,home
159,168 Eagan Road,Allen,Texas,75018,home
160,3037 Center Crossing,Plano,Texas,75043,home
161,7 Vermont Terrace,Allen,Texas,,home
162,90 Elmside Hill,Richardson,Texas,75010,home
163,,,,75056,home
164,9547 Michigan Lane,Addison,Texas,75054,home
165,38 Mallard Place,Richardson,Texas,75038,home
166,2873 Rusk Crossing,Allen,Texas,75040,home
167,9976 Mccormick Terrace,Allen,Texas,,home
168,66 Hallows Trail,Allen,Texas,,home
169,,,,,home
170,,,,75055,home
171,13 Cascade Crossing,Plano,Texas,,home
172,48833 Atwood Alley,Addison,Texas,75001,home
173,21 Canary Park,Plano,Texas,75018,home
174,,,,75069,home
175,6235 Longview Pass,Plano,Texas,,home
176,,,,75025,home
177,,,,75082,home
178,7224 Daystar Pass,Allen,Texas,,home
179,35825 Maple Alley,Richardson,Texas,75001,home
180,2 Sunfield Street,Plano,Texas,75064,home
181,9 Vahlen Drive,Richardson,Texas,75081,home
182,2031 School Trail,Addison,Texas,,home
183,25234 Transport Drive,Plano,Texas,,home
184,2 Nova Point,Addison,Texas,75095,home
185,1 Kropf Circle,Addison,Texas,,home
186,68 Cherokee Way,Addison,Texas,75061,home
187,1 Kenwood Road,Richardson,Texas,75064,home
188,281 Waxwing Point,Richardson,Texas,75080,home
189,,,,75091,home
190,1 Jay Parkway,Plano,Texas,,home
191,4 Kinsman Junction,Plano,Texas,75013,home
192,3 Karstens Park,Dallas,Texas,75058,home
193,3396 Claremont Trail,Allen,Texas,75018,home
194,04546 Tennyson Alley,Plano,Texas,75027,home
195,4 Bunting Plaza,Addison,Texas,75085,home
196,7069 Victoria Court,Allen,Texas,,home
197,3774 Shoshone Hill,Addison,Texas,75062,home
198,,,,75098,home
199,48 Tony Parkway,Plano,Texas,75083,home
200,8 Twin Pines Lane,Richardson,Texas,75032,home
201,90 Lakeland Pass,Richardson,Texas,,home
202,091 Old Shore Plaza,Richardson,Texas,75014,home
203,8 Sheridan Point,Allen,Texas,,home
204,,,,75019,home
205,41 Lakewood Terrace,Allen,Texas,,home
206,,,,75004,home
207,6247 Macpherson Way,Addison,Texas,75061,home
208,3 Buell Avenue,Addison,Texas,,home
209,054 Mccormick Court,Richardson,Texas,75045,home
210,83 Esch Road,Plano,Texas,75048,home
211,85937 Burrows Pass,Addison,Texas,,home
212,0 Stuart Road,Dallas,Texas,,home
213,,,,75087,home
214,,,,75026,home
215,,,,75015,home
216,430 Hudson Hill,Allen,Texas,75077,home
217,,,,75060,home
218,5303 Stoughton Circle,Allen,Texas,75012,home
219,2250 Bunting Point,Addison,Texas,75061,home
220,86414 Gateway Alley,Plano,Texas,75082,home
221,7 Hagan Parkway,Richardson,Texas,,home
222,27 Hovde Place,Addison,Texas,,home
223,88997 Summit Plaza,Addison,Texas,,home
224,,,,75052,home
225,51 Dexter Drive,Dallas,Texas,75032,home
226,,,,75045,home
227,812 Hermina Road,Richardson,Texas,75046,home
228,267 Russell Park,Addison,Texas,,home
229,50 Gale Pass,Plano,Texas,,home
230,44995 Johnson Court,Allen,Texas,75003,home
231,3 Village Green Parkway,Addison,Texas,75023,home
232,,,,75097,home
233,0 Rockefeller Hill,Dallas,Texas,,home
234,,,,75070,home
235,6 Valley Edge Hill,Addison,Texas,75025,home
236,390 Kenwood Hill,Richardson,Texas,75023,home
237,,,,,home
238,13429 Northport Circle,Richardson,Texas,75051,home
239,90 Canary Crossing,Richardson,Texas,,home
240,3595 Huxley Way,Addison,Texas,75052,home
241,67573 Judy Junction,Allen,Texas,,home
242,50 Sycamore Plaza,Addison,Texas,75030,home
243,762 Roxbury Alley,Allen,Texas,75046,home
244,33 Hintze Center,Richardson,Texas,75089,home
245,16 Knutson Pass,Allen,Texas,,home
246,,,,75026,home
247,,,,,home
248,5357 7th Road,Addison,Texas,,home
249,,,,75040,home
250,5 Jana Alley,Richardson,Texas,75063,home
251,57366 Hayes Pass,Addison,Texas,75065,home
252,07 Kenwood Plaza,Allen,Texas,75014,home
253,830 Mccormick Drive,Plano,Texas,75012,home
254,440 Harper Parkway,Addison,Texas,75095,home
255,6821 8th Pass,Dallas,Texas,,home
256,8067 Bayside Parkway,Plano,Texas,,home
257,42330 Hooker Parkway,Allen,Texas,75073,home
258,,,,,home
259,27 Lotheville Road,Dallas,Texas,,home
260,81 Talisman Point,Allen,Texas,75010,home
261,0 Oakridge Center,Plano,Texas,,home
262,9113 Dakota Crossing,Richardson,Texas,75083,home
263,94 Forest Park,Dallas,Texas,,home
264,,,,75038,home
265,4553 Moulton Center,Richardson,Texas,,home
266,87 Warrior Center,Allen,Texas,,home
267,,,,75019,home
268,,,,75081,home
269,1222 Pond Drive,Richardson,Texas,75006,home
270,,,,75084,home
271,31 Summer Ridge Street,Dallas,Texas,,home
272,5 Hanover Crossing,Dallas,Texas,75066,home
273,9 Melrose Street,Plano,Texas,75008,home
274,,,,,home
275,8359 Columbus Circle,Plano,Texas,75092,home
276,72920 Ruskin Trail,Dallas,Texas,75029,home
277,40 Garrison Circle,Allen,Texas,75015,home
278,1 Spohn Lane,Plano,Texas,75028,home
279,37 Rusk Place,Addison,Texas,75071,home
280,,,,75015,home
281,2 Hanson Point,Addison,Texas,75083,home
282,96 Acker Way,Allen,Texas,,home
283,328 Farragut Circle,Richardson,Texas,75031,home
284,2194 Messerschmidt Lane,Richardson,Texas,75001,home
285,1 Monterey Point,Dallas,Texas,75055,home
286,5547 Mallard Park,Allen,Texas,75027,home
287,3 Menomonie Court,Plano,Texas,75050,home
288,82 Duke Street,Allen,Texas,75090,home
289,,,,75090,home
290,,,,75003,home
291,,,,,home
292,808 Merry Avenue,Dallas,Texas,75047,home
293,36365 Esch Road,Dallas,Texas,,home
294,75 Red Cloud Trail,Richardson,Texas,,home
295,1174 Sullivan Avenue,Allen,Texas,75040,home
296,1 Grasskamp Park,Dallas,Texas,,home
297,,,,75070,home
298,2317 Annamark Alley,Dallas,Texas,,home
299,37 Sachtjen Center,Plano,Texas,75021,home
300,58 Redwing Court,Plano,Texas,75097,home
301,632 Graedel Place,Addison,Texas,,home
302,37 Mayer Way,Plano,Texas,,home
303,563 Mockingbird Point,Richardson,Texas,75035,home
304,03 Tomscot Circle,Plano,Texas,75030,home
305,,,,,home
306,,,,75074,home
307,26 Erie Hill,Richardson,Texas,75075,home
308,,,,,home
309,5 Nobel Avenue,Addison,Texas,,home
310,9940 Dunning Parkway,Addison,Texas,,home
311,5598 Waxwing Crossing,Richardson,Texas,75029,home
312,3 Bayside Way,Richardson,Texas,75010,home
313,271 Bowman Way,Plano,Texas,75027,home
314,2953 Scoville Drive,Addison,Texas,,home
315,35 Caliangt Terrace,Addison,Texas,75082,home
316,83 Nova Park,Plano,Texas,,home
317,597 Schmedeman Point,Dallas,Texas,,home
318,8232 Chive Point,Plano,Texas,75042,home
319,8 Packers Lane,Plano,Texas,,home
320,07066 Monica Center,Richardson,Texas,,home
321,,,,75046,home
322,,,,,home
323,318 Moose Trail,Richardson,Texas,75076,home
324,38654 Novick Point,Plano,Texas,,home
325,,,,75025,home
326,45 Miller Trail,Plano,Texas,75042,home
327,8 Forest Dale Way,Plano,Texas,75051,home
328,087 Duke Pass,Dallas,Texas,75005,home
329,811 Petterle Park,Addison,Texas,,home
330,2737 School Avenue,Richardson,Texas,75061,home
331,1 Chive Junction,Dallas,Texas,75063,home
332,2 Randy Way,Addison,Texas,75076,home
333,318 Canary Place,Richardson,Texas,75016,home
334,474 Weeping Birch Park,Dallas,Texas,75048,home
335,5762 Toban Alley,Addison,Texas,75048,home
336,944 Porter Crossing,Addison,Texas,75041,home
337,2960 Myrtle Drive,Plano,Texas,75008,home
338,1 Sachs Way,Addison,Texas,,home
339,53 Hermina Plaza,Richardson,Texas,75015,home
340,01 Fieldstone Terrace,Addison,Texas,75021,home
341,19 Forest Dale Pass,Plano,Texas,,home
342,9 Schlimgen Trail,Allen,Texas,,home
343,79 Onsgard Drive,Plano,Texas,,home
344,4899 Fremont Way,Addison,Texas,,home
345,8733 Aberg Crossing,Addison,Texas,75054,home
346,0 Green Drive,Dallas,Texas,,home
347,52 Morningstar Road,Plano,Texas,75043,home
348,0 Brickson Park Place,Plano,Texas,75009,home
349,5930 Clarendon Point,Allen,Texas,,home
350,3852 Fallview Pass,Richardson,Texas,75034,home
351,,,,75003,home
352,4 Independence Hill,Plano,Texas,75048,home
353,9 Lighthouse Bay Court,Allen,Texas,75031,home
354,1 Namekagon Hill,Allen,Texas,,home
355,,,,75076,home
356,4 Havey Hill,Allen,Texas,75085,home
357,,,,75045,home
358,6 Crescent Oaks Parkway,Addison,Texas,75035,home
359,95 Mallory Point,Plano,Texas,,home
360,1131 Marquette Parkway,Richardson,Texas,75031,home
361,988 Vernon Avenue,Plano,Texas,75086,home
362,36 Nova Junction,Addison,Texas,75061,home
363,029 Derek Crossing,Allen,Texas,75060,home
364,,,,75004,home
365,85 Mandrake Street,Allen,Texas,,home
366,53 Thierer Junction,Dallas,Texas,75010,home
367,,,,75091,home
368,12 Springs Drive,Allen,Texas,75089,home
369,1 Hovde Pass,Addison,Texas,75040,home
370,620 West Drive,Addison,Texas,75073,home
371,463 5th Junction,Addison,Texas,75020,home
372,02 Northport Park,Richardson,Texas,75077,home
373,0 Truax Park,Plano,Texas,75033,home
374,778 Carey Avenue,Addison,Texas,75025,home
375,4510 Southridge Circle,Allen,Texas,75050,home
376,,,,75066,home
377,9322 Armistice Park,Plano,Texas,75032,home
378,98252 Manufacturers Parkway,Allen,Texas,75092,home
379,6694 Columbus Plaza,Richardson,Texas,75004,home
380,,,,75009,home
381,47 Dakota Parkway,Dallas,Texas,75091,home
382,7986 Fallview Point,Richardson,Texas,75057,home
383,,,,75033,home
384,66 Sunbrook Hill,Richardson,Texas,75049,home
385,09 Farragut Way,Dallas,Texas,75003,home
386,86112 Michigan Alley,Plano,Texas,75017,home
387,,,,75046,home
388,1 Continental Crossing,Dallas,Texas,75087,home
389,5 Sunfield Trail,Plano,Texas,75018,home
390,21338 Jenna Center,Plano,Texas,,home
391,4216 Ridgeview Way,Plano,Texas,75093,home
392,,,,,home
393,7260 Hudson Street,Richardson,Texas,,home
394,11738 Harbort Road,Allen,Texas,75003,home
395,44 Harbort Alley,Richardson,Texas,75088,home
396,83453 Clemons Junction,Allen,Texas,,home
397,81 Lillian Crossing,Plano,Texas,75084,home
398,928 Karstens Place,Dallas,Texas,,home
399,88 Anderson Trail,Dallas,Texas,75035,home
400,413 Grasskamp Terrace,Richardson,Texas,75003,home
401,7996 Oak Valley Circle,Plano,Texas,75019,home
402,108 Pepper Wood Alley,Dallas,Texas,75089,home
403,4991 Dapin Crossing,Richardson,Texas,75034,home
404,1 Ludington Circle,Richardson,Texas,,home
405,084 Thackeray Trail,Richardson,Texas,,home
406,77379 Hermina Lane,Plano,Texas,75085,home
407,,,,75034,home
408,1 Superior Park,Dallas,Texas,75037,home
409,45 Summit Trail,Dallas,Texas,75037,home
410,,,,75095,home
411,5 Debs Park,Allen,Texas,75068,home
412,2 Ridgeway Drive,Allen,Texas,75003,home
413,978 Buell Circle,Richardson,Texas,,home
414,696 Esch Way,Addison,Texas,75001,home
415,0 Express Pass,Addison,Texas,,home
416,9165 Colorado Way,Richardson,Texas,75036,home
417,,,,,home
418,8831 Waxwing Point,Addison,Texas,75012,home
419,25 Straubel Lane,Allen,Texas,75077,home
420,5 Melvin Drive,Richardson,Texas,75038,home
421,6367 Annamark Junction,Plano,Texas,75024,home
422,,,,75086,home
423,77 Dakota Alley,Allen,Texas,75001,home
424,828 Shoshone Drive,Plano,Texas,,home
425,57306 Westridge Junction,Plano,Texas,,home
426,,,,,home
427,43 Tennessee Park,Dallas,Texas,75054,home
428,333 Montana Avenue,Richardson,Texas,,home
429,03062 Express Crossing,Richardson,Texas,,home
430,,,,,home
431,,,,75004,home
432,570 Prairie Rose Terrace,Richardson,Texas,75011,home
433,50463 Novick Road,Richardson,Texas,,home
434,1703 Portage Place,Plano,Texas,75096,home
435,66 Service Pass,Dallas,Texas,75069,home
436,15 Marquette Center,Allen,Texas,,home
437,1152 Basil Crossing,Plano,Texas,75024,home
438,00 Aberg Trail,Dallas,Texas,,home
439,97897 Nevada Place,Richardson,Texas,,home
440,86669 Kings Court,Addison,Texas,,home
441,639 Del Mar Plaza,Dallas,Texas,75091,home
442,28 Kipling Pass,Addison,Texas,,home
443,6 Aberg Hill,Allen,Texas,75042,home
444,39881 Vidon Center,Richardson,Texas,75098,home
445,29509 Calypso Circle,Plano,Texas,75098,home
446,49285 Huxley Park,Richardson,Texas,75039,home
447,3990 Lakeland Plaza,Dallas,Texas,75090,home
448,3757 Truax Park,Richardson,Texas,,home
449,,,,75058,home
450,18975 Harbort Hill,Dallas,Texas,75004,home
451,47751 Red Cloud Street,Dallas,Texas,75013,home
452,648 Hooker Junction,Dallas,Texas,75061,home
453,60302 Longview Way,Richardson,Texas,75004,home
454,834 Manitowish Center,Addison,Texas,,home
455,3 Onsgard Plaza,Addison,Texas,75005,home
456,0 Larry Way,Allen,Texas,75060,home
457,370 Longview Hill,Allen,Texas,75005,home
458,90777 Northwestern Street,Addison,Texas,,home
459,72116 Rockefeller Street,Allen,Texas,75097,home
460,71 Loftsgordon Hill,Dallas,Texas,,home
461,4574 Sachs Street,Allen,Texas,,home
462,472 Merchant Street,Allen,Texas,,home
463,3912 Riverside Circle,Richardson,Texas,75039,home
464,79872 Roth Way,Plano,Texas,75082,home
465,34 Dexter Drive,Plano,Texas,75044,home
466,212 School Hill,Plano,Texas,75093,home
467,,,,75011,home
468,2 Kinsman Avenue,Allen,Texas,,home
469,887 Mockingbird Park,Richardson,Texas,75011,home
470,,,,,home
471,1 Havey Hill,Plano,Texas,,home
472,,,,75023,home
473,4106 Dapin Court,Dallas,Texas,75003,home
474,,,,,home
475,135 Mariners Cove Parkway,Richardson,Texas,75038,home
476,60 Graedel Plaza,Dallas,Texas,,home
477,,,,75079,home
478,,,,75071,home
479,51 High Crossing Street,Allen,Texas,75002,home
480,8142 Mccormick Pass,Dallas,Texas,75083,home
481,5652 Pierstorff Road,Plano,Texas,,home
482,5 Graceland Place,Allen,Texas,,home
483,33 Bluestem Center,Addison,Texas,,home
484,78 Caliangt Way,Plano,Texas,75005,home
485,114 La Follette Crossing,Addison,Texas,75077,home
486,74197 Mcguire Avenue,Addison,Texas,75061,home
487,,,,75017,home
488,65 Tony Way,Plano,Texas,75020,home
489,26 Riverside Drive,Plano,Texas,75065,home
490,,,,75088,home
491,1775 Columbus Place,Addison,Texas,75054,home
492,,,,,home
493,,,,75092,home
494,289 Russell Pass,Plano,Texas,75063,home
495,3 Maple Wood Plaza,Dallas,Texas,75017,home
496,1 Stone Corner Terrace,Allen,Texas,,home
497,259 Fairview Center,Plano,Texas,75090,home
498,1 Gulseth Center,Allen,Texas,75057,home
499,86658 Merchant Parkway,Richardson,Texas,,home
500,036 Pleasure Parkway,Addison,Texas,75039,home
501,41 Emmet Point,Allen,Texas,75085,home
502,,,,,home
503,8 Morning Lane,Plano,Texas,,home
504,,,,75054,home
505,1 Graceland Center,Addison,Texas,,home
506,3 Chinook Junction,Addison,Texas,75021,home
507,28 Melvin Court,Allen,Texas,75092,home
508,546 Arapahoe Alley,Allen,Texas,75041,home
509,2 Mandrake Lane,Addison,Texas,,home
510,,,,,home
511,1160 Waubesa Court,Addison,Texas,75080,home
512,74 Grim Center,Addison,Texas,75047,home
513,3 Straubel Trail,Addison,Texas,75022,home
514,09144 Waxwing Parkway,Plano,Texas,75080,home
515,4 Golf View Street,Richardson,Texas,75049,home
516,,,,75043,home
517,6133 Blaine Plaza,Plano,Texas,,home
518,55 Utah Way,Dallas,Texas,,home
519,30380 Melvin Terrace,Addison,Texas,75047,home
520,,,,75071,home
521,443 Gale Avenue,Dallas,Texas,,home
522,57436 Merrick Lane,Dallas,Texas,75065,home
523,64231 Green Ridge Parkway,Dallas,Texas,75018,home
524,58 Northview Drive,Allen,Texas,75032,home
525,26 Stuart Road,Plano,Texas,75050,home
526,0 Crowley Circle,Allen,Texas,75052,home
527,3896 Columbus Parkway,Addison,Texas,75010,home
528,25867 Florence Avenue,Allen,Texas,,home
529,018 Muir Circle,Plano,Texas,,home
530,23 Sullivan Alley,Addison,Texas,,home
531,3392 Sherman Circle,Richardson,Texas,,home
532,217 Dayton Road,Plano,Texas,75089,home
533,6537 Colorado Hill,Plano,Texas,75087,home
534,,,,75006,home
535,6 Carpenter Pass,Allen,Texas,75001,home
536,837 Westridge Lane,Allen,Texas,75079,home
537,114 Mitchell Terrace,Addison,Texas,,home
538,344 Glacier Hill Point,Addison,Texas,,home
539,23 Blackbird Alley,Plano,Texas,75091,home
540,5 Merry Terrace,Richardson,Texas,75081,home
541,149 Talisman Court,Plano,Texas,,home
542,516 Stoughton Plaza,Allen,Texas,75093,home
543,0179 Kensington Trail,Dallas,Texas,75087,home
544,1086 Ludington Pass,Addison,Texas,75040,home
545,11388 Reinke Way,Addison,Texas,75052,home
546,68 Laurel Plaza,Allen,Texas,75079,home
547,05232 Knutson Pass,Richardson,Texas,75059,home
548,3722 Summit Junction,Richardson,Texas,,home
549,6830 Lake View Hill,Allen,Texas,,home
550,963 Cottonwood Junction,Allen,Texas,,home
551,7 Comanche Plaza,Richardson,Texas,75006,home
552,73097 Autumn Leaf Street,Addison,Texas,,home
553,6 Waywood Drive,Addison,Texas,,home
554,,,,75079,home
555,70 Brown Place,Dallas,Texas,,home
556,,,,75071,home
557,1 Mallard Trail,Addison,Texas,75078,home
558,0848 Bluestem Hill,Dallas,Texas,,home
559,75026 Straubel Lane,Allen,Texas,,home
560,,,,75061,home
561,502 Dawn Center,Addison,Texas,75095,home
562,,,,,home
563,9 Dorton Hill,Addison,Texas,75025,home
564,3 Pierstorff Lane,Dallas,Texas,,home
565,5 Old Shore Way,Dallas,Texas,75094,home
566,6 Gale Point,Richardson,Texas,,home
567,0273 Fairview Way,Addison,Texas,,home
568,49356 Anhalt Court,Dallas,Texas,75016,home
569,0187 Beilfuss Crossing,Allen,Texas,75026,home
570,952 Browning Junction,Allen,Texas,75025,home
571,59 Buell Park,Richardson,Texas,75062,home
572,,,,,home
573,,,,75032,home
574,45444 Sutherland Trail,Dallas,Texas,75091,home
575,2457 Fuller Court,Richardson,Texas,,home
576,723 Bayside Alley,Richardson,Texas,75013,home
577,9494 3rd Parkway,Addison,Texas,75043,home
578,689 Maywood Trail,Dallas,Texas,,home
579,7839 Carioca Drive,Allen,Texas,75091,home
580,8 Rockefeller Drive,Plano,Texas,75021,home
581,44630 Elgar Avenue,Allen,Texas,75062,home
582,680 Meadow Vale Parkway,Richardson,Texas,75034,home
583,120 Tony Center,Addison,Texas,75029,home
584,92383 North Crossing,Addison,Texas,,home
585,28 Cottonwood Circle,Addison,Texas,75091,home
586,66 Charing Cross Trail,Plano,Texas,75092,home
587,9 Warrior Plaza,Plano,Texas,75008,home
588,,,,75028,home
589,00220 Manufacturers Road,Dallas,Texas,,home
590,,,,,home
591,,,,75017,home
592,,,,75047,home
593,,,,,home
594,465 Rigney Way,Allen,Texas,75051,home
595,,,,,home
596,89 Kenwood Trail,Addison,Texas,75095,home
597,3 Mcguire Circle,Plano,Texas,,home
598,57438 Arrowood Alley,Dallas,Texas,75070,home
599,810 Carberry Place,Dallas,Texas,75082,home
600,25433 Sauthoff Place,Allen,Texas,75024,home
601,9 Hoepker Parkway,Plano,Texas,75003,home
602,,,,75032,home
603,,,,75094,home
604,,,,75004,home
605,,,,75036,home
606,32742 Fieldstone Plaza,Allen,Texas,75051,home
607,509 Cherokee Circle,Dallas,Texas,75014,home
608,04 Randy Circle,Allen,Texas,75078,home
609,59 Talisman Road,Allen,Texas,75019,home
610,43 Macpherson Terrace,Richardson,Texas,75098,home
611,,,,75077,home
612,188 Summerview Way,Plano,Texas,,home
613,0327 Monica Avenue,Addison,Texas,75009,home
614,72 Macpherson Avenue,Plano,Texas,75021,home
615,26807 Bayside Point,Allen,Texas,75050,home
616,877 Fairview Road,Allen,Texas,75071,home
617,51 Almo Circle,Allen,Texas,75082,home
618,390 Garrison Place,Addison,Texas,75096,home
619,,,,75037,home
620,22191 Declaration Plaza,Allen,Texas,75076,home
621,09440 Oak Junction,Richardson,Texas,,home
622,,,,75075,home
623,417 Lighthouse Bay Lane,Plano,Texas,75051,home
624,26 Gale Street,Richardson,Texas,,home
625,67 Cottonwood Plaza,Richardson,Texas,75091,home
626,,,,75093,home
627,0236 Memorial Park,Plano,Texas,75048,home
628,,,,,home
629,7 5th Place,Plano,Texas,,home
630,2 High Crossing Way,Richardson,Texas,,home
631,,,,75021,home
632,1 Blackbird Pass,Allen,Texas,75032,home
633,6 Anzinger Street,Plano,Texas,75027,home
634,15 Maywood Center,Addison,Texas,75084,home
635,9716 Michigan Plaza,Allen,Texas,,home
636,28 Iowa Crossing,Addison,Texas,,home
637,5 Reinke Center,Addison,Texas,75044,home
638,,,,,home
639,4090 Loeprich Place,Addison,Texas,75036,home
640,88 Harbort Alley,Addison,Texas,,home
641,981 Rockefeller Crossing,Plano,Texas,75072,home
642,8 Calypso Drive,Richardson,Texas,75019,home
643,3 Memorial Terrace,Dallas,Texas,75023,home
644,,,,75069,home
645,8240 Dexter Avenue,Plano,Texas,75083,home
646,478 Birchwood Court,Plano,Texas,75045,home
647,07 North Way,Richardson,Texas,,home
648,5285 Moose Alley,Allen,Texas,,home
649,9 Stephen Way,Richardson,Texas,75029,home
650,3 Jana Avenue,Allen,Texas,75012,home
651,65148 Marcy Center,Dallas,Texas,75021,home
652,0859 Elmside Point,Dallas,Texas,75096,home
653,,,,75093,home
654,677 Fordem Court,Allen,Texas,75066,home
655,4985 Caliangt Trail,Allen,Texas,,home
656,,,,,home
657,,,,75062,home
658,33 Farwell Junction,Allen,Texas,75056,home
659,80253 Gulseth Circle,Richardson,Texas,75094,home
660,48665 Eastwood Drive,Addison,Texas,75039,home
661,14 4th Road,Allen,Texas,,home
662,0 Kinsman Plaza,Richardson,Texas,75036,home
663,02 Onsgard Drive,Richardson,Texas,,home
664,,,,75087,home
665,72 Tennessee Park,Allen,Texas,75039,home
666,958 Prairieview Court,Allen,Texas,,home
667,2674 Monument Crossing,Allen,Texas,75087,home
668,801 Stephen Point,Richardson,Texas,,home
669,6141 Summit Crossing,Addison,Texas,,home
670,855 Ramsey Lane,Plano,Texas,75007,home
671,,,,75044,home
672,2857 Weeping Birch Center,Plano,Texas,75020,home
673,692 Atwood Drive,Richardson,Texas,,home
674,5 Claremont Junction,Allen,Texas,75043,home
675,436 Fremont Circle,Allen,Texas,75052,home
676,65146 Summer Ridge Crossing,Plano,Texas,,home
677,1766 Mifflin Court,Dallas,Texas,75068,home
678,3133 Swallow Circle,Addison,Texas,75057,home
679,219 Oxford Street,Allen,Texas,75080,home
680,0 Daystar Avenue,Richardson,Texas,,home
681,,,,,home
682,,,,75011,home
683,3325 Bartelt Place,Plano,Texas,75011,home
684,21 Brickson Park Plaza,Allen,Texas,,home
685,,,,75081,home
686,,,,,home
687,97 Hooker Point,Richardson,Texas,,home
688,,,,75014,home
689,10220 Golden Leaf Lane,Richardson,Texas,75057,home
690,7746 Sommers Circle,Richardson,Texas,,home
691,6417 Mccormick Lane,Addison,Texas,75007,home
692,70662 Oak Valley Terrace,Addison,Texas,75088,home
693,77873 Annamark Drive,Allen,Texas,75055,home
694,,,,75011,home
695,,,,75097,home
696,69493 Amoth Alley,Plano,Texas,75023,home
697,53 Harbort Center,Plano,Texas,75033,home
698,84579 Blackbird Street,Dallas,Texas,75035,home
699,9 Manley Lane,Plano,Texas,75049,home
700,0 Summit Alley,Dallas,Texas,,home
701,7714 Mifflin Street,Dallas,Texas,75043,home
702,,,,,home
703,7260 Laurel Alley,Richardson,Texas,75064,home
704,2 Eliot Way,Addison,Texas,75082,home
705,06 Knutson Place,Allen,Texas,75022,home
706,9878 Caliangt Plaza,Plano,Texas,75045,home
707,17946 Union Drive,Addison,Texas,75085,home
708,6 6th Place,Plano,Texas,75040,home
709,1684 Crest Line Trail,Richardson,Texas,75085,home
710,6161 Clyde Gallagher Parkway,Dallas,Texas,75034,home
711,3 Troy Road,Addison,Texas,,home
712,4169 Namekagon Park,Plano,Texas,75015,home
713,,,,75038,home
714,3 Spaight Hill,Allen,Texas,75012,home
715,4530 Schurz Pass,Richardson,Texas,75021,home
716,9 Rowland Pass,Addison,Texas,75044,home
717,13053 American Drive,Dallas,Texas,75004,home
718,,,,75016,home
719,,,,75090,home
720,2132 Eastwood Place,Plano,Texas,75076,home
721,0758 Kings Drive,Dallas,Texas,,home
722,59 Emmet Crossing,Plano,Texas,75069,home
723,93 Dapin Court,Allen,Texas,75024,home
724,2 Dahle Hill,Allen,Texas,,home
725,27 Continental Lane,Plano,Texas,,home
726,09 Springs Avenue,Dallas,Texas,75035,home
727,77822 Delladonna Terrace,Allen,Texas,75068,home
728,868 Farmco Center,Plano,Texas,75003,home
729,,,,75025,home
730,,,,75066,home
731,24 Center Hill,Dallas,Texas,75038,home
732,1473 Farmco Circle,Plano,Texas,75050,home
733,07389 Dorton Park,Plano,Texas,75077,home
734,9 Russell Parkway,Addison,Texas,75034,home
735,990 Northview Court,Plano,Texas,75057,home
736,00818 Springs Court,Dallas,Texas,75032,home
737,352 Westridge Parkway,Richardson,Texas,75050,home
738,22 Magdeline Street,Dallas,Texas,75063,home
739,,,,,home
740,929 Weeping Birch Avenue,Dallas,Texas,75056,home
741,,,,,home
742,861 Lakewood Crossing,Allen,Texas,,home
743,156 Maryland Court,Dallas,Texas,,home
744,345 Erie Pass,Dallas,Texas,75052,home
745,4 Mallory Point,Richardson,Texas,,home
746,8772 Iowa Road,Richardson,Texas,75065,home
747,57 Hermina Center,Plano,Texas,75025,home
748,,,,75082,home
749,,,,75076,home
750,,,,,home
751,820 Becker Trail,Richardson,Texas,,home
752,92 Onsgard Point,Allen,Texas,75043,home
753,,,,75081,home
754,6342 Eastwood Trail,Allen,Texas,75008,home
755,,,,75037,home
756,,,,75014,home
757,8332 Larry Center,Addison,Texas,75005,home
758,66 Jenifer Avenue,Addison,Texas,,home
759,77474 Anhalt Junction,Plano,Texas,75094,home
760,23 Scott Plaza,Addison,Texas,75076,home
761,5236 Linden Park,Dallas,Texas,,home
762,581 2nd Avenue,Allen,Texas,75029,home
763,80509 Glendale Circle,Plano,Texas,75076,home
764,,,,75069,home
765,905 Muir Circle,Richardson,Texas,75062,home
766,,,,,home
767,6190 Sutherland Circle,Dallas,Texas,,home
768,9022 Shopko Lane,Richardson,Texas,,home
769,1384 Arizona Road,Richardson,Texas,75046,home
770,96058 Lakewood Place,Allen,Texas,75028,home
771,,,,75080,home
772,63 Jenifer Parkway,Dallas,Texas,,home
773,120 Loomis Avenue,Dallas,Texas,75086,home
774,20022 Marcy Hill,Dallas,Texas,75054,home
775,40973 Victoria Center,Richardson,Texas,75080,home
776,,,,,home
777,,,,75010,home
778,,,,75038,home
779,,,,,home
780,32266 Bartillon Avenue,Plano,Texas,,home
781,42352 Fuller Way,Plano,Texas,,home
782,75395 Luster Plaza,Dallas,Texas,,home
783,22617 Farragut Park,Richardson,Texas,75021,home
784,,,,75088,home
785,,,,,home
786,808 Weeping Birch Lane,Addison,Texas,,home
787,3088 Troy Trail,Richardson,Texas,75074,home
788,,,,75009,home
789,72330 Emmet Circle,Plano,Texas,75093,home
790,7 Armistice Place,Richardson,Texas,75064,home
791,5 Schmedeman Plaza,Addison,Texas,,home
792,07 Rockefeller Hill,Allen,Texas,75044,home
793,84513 Heath Pass,Plano,Texas,75026,home
794,24976 Eagan Parkway,Addison,Texas,75065,home
795,,,,75035,home
796,,,,75039,home
797,6 Tomscot Point,Addison,Texas,,home
798,263 1st Street,Allen,Texas,75040,home
799,75023 Carioca Drive,Plano,Texas,75013,home
800,16 Acker Center,Addison,Texas,75099,home
801,903 Becker Avenue,Allen,Texas,75057,home
802,3649 Judy Pass,Dallas,Texas,,home
803,959 Tony Alley,Allen,Texas,75012,home
804,2694 Pankratz Avenue,Allen,Texas,75014,home
805,23 Waxwing Center,Dallas,Texas,,home
806,1476 Ramsey Street,Richardson,Texas,75046,home
807,91870 Nevada Trail,Plano,Texas,75066,home
808,9 New Castle Hill,Allen,Texas,75043,home
809,1909 Farmco Alley,Dallas,Texas,75021,home
810,335 Forest Drive,Allen,Texas,75009,home
811,24942 Talisman Pass,Allen,Texas,75032,home
812,2 Bashford Terrace,Richardson,Texas,75064,home
813,26 Roxbury Terrace,Dallas,Texas,75011,home
814,28 7th Lane,Allen,Texas,,home
815,5 Messerschmidt Street,Plano,Texas,75069,home
816,592 Park Meadow Center,Addison,Texas,75060,home
817,15752 Lillian Pass,Plano,Texas,75034,home
818,1159 Harbort Center,Plano,Texas,75007,home
819,14510 Northfield Street,Dallas,Texas,75023,home
820,2171 Aberg Crossing,Addison,Texas,,home
821,5 Dorton Crossing,Dallas,Texas,75050,home
822,2114 Ramsey Lane,Dallas,Texas,75014,home
823,05 Oxford Way,Richardson,Texas,,home
824,4525 Fulton Alley,Dallas,Texas,75070,home
825,9412 Kennedy Plaza,Richardson,Texas,75050,home
826,8 Monica Park,Richardson,Texas,75075,home
827,1 Manley Circle,Richardson,Texas,75052,home
828,46 Bayside Point,Allen,Texas,75052,home
829,,,,75006,home
830,,,,75086,home
831,14320 Beilfuss Hill,Plano,Texas,75033,home
832,97 Holmberg Place,Addison,Texas,,home
833,27 Vahlen Street,Allen,Texas,75040,home
834,46311 Caliangt Street,Plano,Texas,75030,home
835,54 Novick Avenue,Plano,Texas,,home
836,09 Butternut Plaza,Allen,Texas,75044,home
837,447 7th Pass,Addison,Texas,75038,home
838,0559 Mosinee Park,Allen,Texas,75020,home
839,96 Miller Plaza,Richardson,Texas,75098,home
840,,,,75029,home
841,1225 Corscot Lane,Plano,Texas,75099,home
842,,,,,home
843,31006 Londonderry Pass,Allen,Texas,75065,home
844,,,,,home
845,13 Park Meadow Way,Allen,Texas,75065,home
846,9 Stephen Court,Richardson,Texas,,home
847,,,,75022,home
848,827 Riverside Lane,Addison,Texas,75063,home
849,,,,75032,home
850,2791 Susan Circle,Richardson,Texas,75093,home
851,,,,,home
852,,,,,home
853,4 Charing Cross Hill,Allen,Texas,75017,home
854,8314 Dennis Junction,Plano,Texas,75001,home
855,925 Rieder Junction,Richardson,Texas,75052,home
856,9 Ohio Street,Plano,Texas,,home
857,52 2nd Circle,Dallas,Texas,,home
858,16 Maryland Center,Richardson,Texas,,home
859,,,,75049,home
860,7 Fairfield Drive,Plano,Texas,75066,home
861,,,,75060,home
862,1295 Warbler Court,Richardson,Texas,75032,home
863,93552 Muir Plaza,Dallas,Texas,75059,home
864,8 Stoughton Terrace,Addison,Texas,75096,home
865,2 Rutledge Lane,Allen,Texas,75019,home
866,57250 Butternut Alley,Dallas,Texas,75065,home
867,,,,,home
868,708 Grover Parkway,Allen,Texas,75083,home
869,,,,75004,home
870,8590 Cardinal Place,Richardson,Texas,,home
871,9 John Wall Terrace,Allen,Texas,75024,home
872,93 Butterfield Center,Allen,Texas,75084,home
873,65458 Glacier Hill Plaza,Dallas,Texas,75064,home
874,2498 Quincy Lane,Dallas,Texas,,home
875,959 Hallows Plaza,Dallas,Texas,75061,home
876,60 Ridgeway Plaza,Addison,Texas,,home
877,7272 Hayes Point,Allen,Texas,75008,home
878,6 Golf Parkway,Richardson,Texas,75003,home
879,2 Grover Plaza,Richardson,Texas,75038,home
880,17226 Arapahoe Parkway,Richardson,Texas,,home
881,,,,,home
882,25 Arrowood Circle,Richardson,Texas,75053,home
883,9 Springs Circle,Addison,Texas,75021,home
884,84964 Division Avenue,Plano,Texas,75022,home
885,849 1st Circle,Plano,Texas,,home
886,,,,75038,home
887,,,,,home
888,,,,75019,home
889,84 Schmedeman Lane,Richardson,Texas,75022,home
890,9 Montana Plaza,Dallas,Texas,75061,home
891,,,,75010,home
892,25181 La Follette Place,Dallas,Texas,75056,home
893,,,,75065,home
894,8118 Eastlawn Parkway,Allen,Texas,75057,home
895,951 Forest Run Plaza,Richardson,Texas,75064,home
896,,,,75013,home
897,5013 Ilene Hill,Dallas,Texas,,home
898,8 Blaine Pass,Addison,Texas,,home
899,9463 Lake View Road,Allen,Texas,75059,home
900,334 Almo Avenue,Dallas,Texas,75070,home
901,9 Moulton Avenue,Richardson,Texas,75052,home
902,0695 Dakota Terrace,Addison,Texas,75069,home
903,472 Kennedy Road,Addison,Texas,75032,home
904,9772 Eastwood Circle,Richardson,Texas,75080,home
905,08299 Lillian Drive,Allen,Texas,75076,home
906,4 Porter Circle,Addison,Texas,75016,home
907,904 Fremont Way,Allen,Texas,75090,home
908,43 Randy Avenue,Richardson,Texas,,home
909,87470 Northfield Circle,Allen,Texas,75088,home
910,72792 Donald Avenue,Richardson,Texas,,home
911,3 Walton Point,Plano,Texas,75064,home
912,06 Reinke Point,Addison,Texas,,home
913,,,,75083,home
914,,,,75085,home
915,26218 Prairieview Road,Allen,Texas,,home
916,5181 Hanson Avenue,Dallas,Texas,75087,home
917,50 Eastwood Junction,Dallas,Texas,75045,home
918,8 Dapin Center,Dallas,Texas,,home
919,,,,75009,home
920,20776 Wayridge Hill,Richardson,Texas,,home
921,,,,75006,home
922,34866 Lindbergh Circle,Allen,Texas,75086,home
923,11950 Meadow Ridge Street,Addison,Texas,75086,home
924,634 Dennis Drive,Plano,Texas,75054,home
925,6 Steensland Plaza,Plano,Texas,75037,home
926,0 Haas Alley,Plano,Texas,,home
927,9835 Kropf Terrace,Dallas,Texas,75009,home
928,,,,75018,home
929,4768 Bay Pass,Richardson,Texas,,home
930,93 Lotheville Hill,Allen,Texas,75089,home
931,9 Longview Pass,Richardson,Texas,,home
932,16872 Mosinee Place,Addison,Texas,75033,home
933,,,,,home
934,5271 Drewry Circle,Plano,Texas,,home
935,64 Morningstar Junction,Allen,Texas,75075,home
936,16689 Sunfield Center,Addison,Texas,,home
937,8 Granby Junction,Dallas,Texas,75093,home
938,0 Grim Trail,Dallas,Texas,75026,home
939,306 Graceland Drive,Addison,Texas,75094,home
940,4191 Del Sol Street,Allen,Texas,75049,home
941,290 Londonderry Drive,Plano,Texas,,home
942,3 Saint Paul Pass,Allen,Texas,75064,home
943,66 Surrey Circle,Dallas,Texas,75082,home
944,,,,,home
945,51 Northridge Court,Addison,Texas,75010,home
946,4 John Wall Park,Plano,Texas,75067,home
947,,,,75020,home
948,88714 Hayes Junction,Addison,Texas,75005,home
949,497 Macpherson Alley,Dallas,Texas,75018,home
950,06661 Westport Plaza,Plano,Texas,75073,home
951,46513 Granby Lane,Plano,Texas,,home
952,5 Merry Crossing,Richardson,Texas,75055,home
953,83 Mcguire Plaza,Plano,Texas,75092,home
954,88888 Anthes Park,Allen,Texas,75033,home
955,2167 Village Green Hill,Dallas,Texas,75077,home
956,,,,75074,home
957,336 Petterle Street,Richardson,Texas,75087,home
958,1 Ludington Place,Addison,Texas,,home
959,35 Judy Street,Allen,Texas,,home
960,,,,75086,home
961,5 Mockingbird Point,Allen,Texas,75006,home
962,,,,75008,home
963,5 Harper Crossing,Allen,Texas,75069,home
964,,,,75032,home
965,768 Brentwood Crossing,Allen,Texas,,home
966,,,,,home
967,053 Dakota Avenue,Addison,Texas,75073,home
968,31568 Dakota Crossing,Richardson,Texas,75024,home
969,489 Quincy Hill,Plano,Texas,75035,home
970,6 Rutledge Parkway,Dallas,Texas,75047,home
971,5452 Walton Junction,Richardson,Texas,75074,home
972,22 Dwight Center,Addison,Texas,75033,home
973,9 Kim Alley,Plano,Texas,75083,home
974,17 Killdeer Parkway,Addison,Texas,75087,home
975,70338 Clyde Gallagher Street,Dallas,Texas,75036,home
976,204 Caliangt Way,Dallas,Texas,75049,home
977,,,,,home
978,7637 Burrows Alley,Addison,Texas,75085,home
979,,,,75001,home
980,0 Colorado Way,Richardson,Texas,,home
981,07151 Anderson Trail,Allen,Texas,75079,home
982,0 Annamark Alley,Allen,Texas,75098,home
983,5 Coleman Lane,Dallas,Texas,75001,home
984,853 5th Terrace,Richardson,Texas,,home
985,46789 Moulton Crossing,Addison,Texas,75099,home
986,,,,,home
987,1 Thierer Drive,Richardson,Texas,75017,home
988,7 Brown Hill,Addison,Texas,75077,home
989,8 Huxley Junction,Plano,Texas,75029,home
990,70 Del Mar Junction,Plano,Texas,75062,home
991,5228 Commercial Crossing,Allen,Texas,,home
992,5 Blue Bill Park Street,Plano,Texas,75003,home
993,51469 Becker Point,Dallas,Texas,75014,home
994,583 Manufacturers Avenue,Richardson,Texas,,home
995,0648 Lakewood Street,Plano,Texas,75006,home
996,13 Main Way,Addison,Texas,75089,home
997,782 Lighthouse Bay Pass,Allen,Texas,75060,home
998,008 Ryan Center,Plano,Texas,,home
999,5729 Farragut Plaza,Dallas,Texas,75079,home
1000,18201 Novick Circle,Richardson,Texas,75037,home
